METOP-C                 
1 43689U 18087A   26117.45927211  .00000103  00000+0  66824-4 0  9995
2 43689  98.6678 177.9814 0000774  39.7016 320.4218 14.21512035387627
GEO-KOMPSAT-2A          
1 43823U 18100A   26117.34836674 -.00000353  00000+0  00000+0 0  9998
2 43823   0.0563  68.6326 0002044 358.0773  42.3030  1.00270794 27124
METEOR-M2 2             
1 44387U 19038A   26117.52668135  .00000086  00000+0  57103-4 0  9993
2 44387  98.9131 104.0708 0001772 125.2646 234.8698 14.24351106354089
ARKTIKA-M 1             
1 47719U 21016A   26117.15191642 -.00000077  00000+0  00000+0 0  9997
2 47719  63.2257  64.9873 7268357 269.6960  14.9425  2.00608523 37762
FENGYUN 3E              
1 49008U 21062A   26117.46541464  .00000166  00000+0  99107-4 0  9995
2 49008  98.7510 121.4385 0000826 189.5308 170.5853 14.19900463249389
GOES 18                 
1 51850U 22021A   26117.46229571  .00000000  00000+0  00000+0 0  9997
2 51850   0.0108  80.6521 0000569   6.7935 157.4266  1.00270127  6087
NOAA 21 (JPSS-2)        
1 54234U 22150A   26117.49718836  .00000074  00000+0  55547-4 0  9991
2 54234  98.7035  57.1447 0001770  20.0321 340.0925 14.19555922179354
METEOSAT-12 (MTG-I1)    
1 54743U 22170C   26117.22267126 -.00000018  00000+0  00000+0 0  9998
2 54743   0.7245  22.4777 0001107 335.3296 297.2322  1.00269708 12465
TIANMU-1 03             
1 55973U 23039A   26117.51727275  .00017674  00000+0  36608-3 0  9999
2 55973  97.5216 289.5658 0001647 275.8605  84.2456 15.45823215173001
TIANMU-1 04             
1 55974U 23039B   26117.52544830  .00018417  00000+0  37429-3 0  9993
2 55974  97.5151 288.7270 0002338 270.2816  89.8165 15.46369726173014
TIANMU-1 05             
1 55975U 23039C   26117.49578296  .00017991  00000+0  37340-3 0  9991
2 55975  97.5197 289.1768 0001591 319.2995  40.8134 15.45760446172985
TIANMU-1 06             
1 55976U 23039D   26117.52605580  .00018159  00000+0  37002-3 0  9995
2 55976  97.5205 289.7944 0001810 305.8439  54.2642 15.46296194173019
FENGYUN 3G              
1 56232U 23055A   26117.47709977  .00028968  00000+0  47007-3 0  9993
2 56232  49.9926 247.5541 0005963 327.1011  32.9584 15.52438573172122
METEOR-M2 3             
1 57166U 23091A   26117.50955061  .00000009  00000+0  22784-4 0  9993
2 57166  98.6122 173.5144 0003209 333.4801  26.6213 14.24042342147307
TIANMU-1 07             
1 57399U 23101A   26117.52869832  .00006531  00000+0  23258-3 0  9997
2 57399  97.2640 169.3705 0001315   9.3034 350.8231 15.29268967153908
TIANMU-1 08             
1 57400U 23101B   26117.36531590  .00009606  00000+0  34046-3 0  9992
2 57400  97.2629 168.9871 0002192 313.7562  46.3497 15.29300022153875
TIANMU-1 09             
1 57401U 23101C   26117.47989072  .00007753  00000+0  27527-3 0  9994
2 57401  97.2587 168.5426 0001818   1.1363 358.9881 15.29306814153898
