[{"OBJECT_NAME":"METOP-C","OBJECT_ID":"2018-087A","EPOCH":"2026-04-27T11:01:21.110304","MEAN_MOTION":14.21512035,"ECCENTRICITY":7.74e-5,"INCLINATION":98.6678,"RA_OF_ASC_NODE":177.9814,"ARG_OF_PERICENTER":39.7016,"MEAN_ANOMALY":320.4218,"EPHEMERIS_TYPE":0,"CLASSIFICATION_TYPE":"U","NORAD_CAT_ID":43689,"ELEMENT_SET_NO":999,"REV_AT_EPOCH":38762,"BSTAR":6.6824e-5,"MEAN_MOTION_DOT":1.03e-6,"MEAN_MOTION_DDOT":0},{"OBJECT_NAME":"GEO-KOMPSAT-2A","OBJECT_ID":"2018-100A","EPOCH":"2026-04-27T08:21:38.886336","MEAN_MOTION":1.00270794,"ECCENTRICITY":0.0002044,"INCLINATION":0.0563,"RA_OF_ASC_NODE":68.6326,"ARG_OF_PERICENTER":358.0773,"MEAN_ANOMALY":42.303,"EPHEMERIS_TYPE":0,"CLASSIFICATION_TYPE":"U","NORAD_CAT_ID":43823,"ELEMENT_SET_NO":999,"REV_AT_EPOCH":2712,"BSTAR":0,"MEAN_MOTION_DOT":-3.53e-6,"MEAN_MOTION_DDOT":0},{"OBJECT_NAME":"METEOR-M2 2","OBJECT_ID":"2019-038A","EPOCH":"2026-04-27T12:38:25.268640","MEAN_MOTION":14.24351106,"ECCENTRICITY":0.0001772,"INCLINATION":98.9131,"RA_OF_ASC_NODE":104.0708,"ARG_OF_PERICENTER":125.2646,"MEAN_ANOMALY":234.8698,"EPHEMERIS_TYPE":0,"CLASSIFICATION_TYPE":"U","NORAD_CAT_ID":44387,"ELEMENT_SET_NO":999,"REV_AT_EPOCH":35408,"BSTAR":5.7103e-5,"MEAN_MOTION_DOT":8.6e-7,"MEAN_MOTION_DDOT":0},{"OBJECT_NAME":"ARKTIKA-M 1","OBJECT_ID":"2021-016A","EPOCH":"2026-04-27T03:38:45.578688","MEAN_MOTION":2.00608523,"ECCENTRICITY":0.7268357,"INCLINATION":63.2257,"RA_OF_ASC_NODE":64.9873,"ARG_OF_PERICENTER":269.696,"MEAN_ANOMALY":14.9425,"EPHEMERIS_TYPE":0,"CLASSIFICATION_TYPE":"U","NORAD_CAT_ID":47719,"ELEMENT_SET_NO":999,"REV_AT_EPOCH":3776,"BSTAR":0,"MEAN_MOTION_DOT":-7.7e-7,"MEAN_MOTION_DDOT":0},{"OBJECT_NAME":"FENGYUN 3E","OBJECT_ID":"2021-062A","EPOCH":"2026-04-27T11:10:11.824896","MEAN_MOTION":14.19900463,"ECCENTRICITY":8.26e-5,"INCLINATION":98.751,"RA_OF_ASC_NODE":121.4385,"ARG_OF_PERICENTER":189.5308,"MEAN_ANOMALY":170.5853,"EPHEMERIS_TYPE":0,"CLASSIFICATION_TYPE":"U","NORAD_CAT_ID":49008,"ELEMENT_SET_NO":999,"REV_AT_EPOCH":24938,"BSTAR":9.9107e-5,"MEAN_MOTION_DOT":1.66e-6,"MEAN_MOTION_DDOT":0},{"OBJECT_NAME":"GOES 18","OBJECT_ID":"2022-021A","EPOCH":"2026-04-27T11:05:42.349344","MEAN_MOTION":1.00270127,"ECCENTRICITY":5.69e-5,"INCLINATION":0.0108,"RA_OF_ASC_NODE":80.6521,"ARG_OF_PERICENTER":6.7935,"MEAN_ANOMALY":157.4266,"EPHEMERIS_TYPE":0,"CLASSIFICATION_TYPE":"U","NORAD_CAT_ID":51850,"ELEMENT_SET_NO":999,"REV_AT_EPOCH":608,"BSTAR":0,"MEAN_MOTION_DOT":0,"MEAN_MOTION_DDOT":0},{"OBJECT_NAME":"NOAA 21 (JPSS-2)","OBJECT_ID":"2022-150A","EPOCH":"2026-04-27T11:55:57.074304","MEAN_MOTION":14.19555922,"ECCENTRICITY":0.000177,"INCLINATION":98.7035,"RA_OF_ASC_NODE":57.1447,"ARG_OF_PERICENTER":20.0321,"MEAN_ANOMALY":340.0925,"EPHEMERIS_TYPE":0,"CLASSIFICATION_TYPE":"U","NORAD_CAT_ID":54234,"ELEMENT_SET_NO":999,"REV_AT_EPOCH":17935,"BSTAR":5.5547e-5,"MEAN_MOTION_DOT":7.4e-7,"MEAN_MOTION_DDOT":0},{"OBJECT_NAME":"METEOSAT-12 (MTG-I1)","OBJECT_ID":"2022-170C","EPOCH":"2026-04-27T05:20:38.796864","MEAN_MOTION":1.00269708,"ECCENTRICITY":0.00011079,"INCLINATION":0.7245,"RA_OF_ASC_NODE":22.4777,"ARG_OF_PERICENTER":335.3296,"MEAN_ANOMALY":297.2322,"EPHEMERIS_TYPE":0,"CLASSIFICATION_TYPE":"U","NORAD_CAT_ID":54743,"ELEMENT_SET_NO":999,"REV_AT_EPOCH":1246,"BSTAR":0,"MEAN_MOTION_DOT":-1.8e-7,"MEAN_MOTION_DDOT":0},{"OBJECT_NAME":"TIANMU-1 03","OBJECT_ID":"2023-039A","EPOCH":"2026-04-27T12:24:52.365600","MEAN_MOTION":15.45823215,"ECCENTRICITY":0.0001647,"INCLINATION":97.5216,"RA_OF_ASC_NODE":289.5658,"ARG_OF_PERICENTER":275.8605,"MEAN_ANOMALY":84.2456,"EPHEMERIS_TYPE":0,"CLASSIFICATION_TYPE":"U","NORAD_CAT_ID":55973,"ELEMENT_SET_NO":999,"REV_AT_EPOCH":17300,"BSTAR":0.00036608,"MEAN_MOTION_DOT":0.00017674,"MEAN_MOTION_DDOT":0},{"OBJECT_NAME":"TIANMU-1 04","OBJECT_ID":"2023-039B","EPOCH":"2026-04-27T12:36:38.733120","MEAN_MOTION":15.46369726,"ECCENTRICITY":0.0002338,"INCLINATION":97.5151,"RA_OF_ASC_NODE":288.727,"ARG_OF_PERICENTER":270.2816,"MEAN_ANOMALY":89.8165,"EPHEMERIS_TYPE":0,"CLASSIFICATION_TYPE":"U","NORAD_CAT_ID":55974,"ELEMENT_SET_NO":999,"REV_AT_EPOCH":17301,"BSTAR":0.00037429,"MEAN_MOTION_DOT":0.00018417,"MEAN_MOTION_DDOT":0},{"OBJECT_NAME":"TIANMU-1 05","OBJECT_ID":"2023-039C","EPOCH":"2026-04-27T11:53:55.647744","MEAN_MOTION":15.45760446,"ECCENTRICITY":0.0001591,"INCLINATION":97.5197,"RA_OF_ASC_NODE":289.1768,"ARG_OF_PERICENTER":319.2995,"MEAN_ANOMALY":40.8134,"EPHEMERIS_TYPE":0,"CLASSIFICATION_TYPE":"U","NORAD_CAT_ID":55975,"ELEMENT_SET_NO":999,"REV_AT_EPOCH":17298,"BSTAR":0.0003734,"MEAN_MOTION_DOT":0.00017991,"MEAN_MOTION_DDOT":0},{"OBJECT_NAME":"TIANMU-1 06","OBJECT_ID":"2023-039D","EPOCH":"2026-04-27T12:37:31.221120","MEAN_MOTION":15.46296194,"ECCENTRICITY":0.000181,"INCLINATION":97.5205,"RA_OF_ASC_NODE":289.7944,"ARG_OF_PERICENTER":305.8439,"MEAN_ANOMALY":54.2642,"EPHEMERIS_TYPE":0,"CLASSIFICATION_TYPE":"U","NORAD_CAT_ID":55976,"ELEMENT_SET_NO":999,"REV_AT_EPOCH":17301,"BSTAR":0.00037002,"MEAN_MOTION_DOT":0.00018159,"MEAN_MOTION_DDOT":0},{"OBJECT_NAME":"FENGYUN 3G","OBJECT_ID":"2023-055A","EPOCH":"2026-04-27T11:27:01.420128","MEAN_MOTION":15.52438573,"ECCENTRICITY":0.0005963,"INCLINATION":49.9926,"RA_OF_ASC_NODE":247.5541,"ARG_OF_PERICENTER":327.1011,"MEAN_ANOMALY":32.9584,"EPHEMERIS_TYPE":0,"CLASSIFICATION_TYPE":"U","NORAD_CAT_ID":56232,"ELEMENT_SET_NO":999,"REV_AT_EPOCH":17212,"BSTAR":0.00047007,"MEAN_MOTION_DOT":0.00028968,"MEAN_MOTION_DDOT":0},{"OBJECT_NAME":"METEOR-M2 3","OBJECT_ID":"2023-091A","EPOCH":"2026-04-27T12:13:45.172704","MEAN_MOTION":14.24042342,"ECCENTRICITY":0.0003209,"INCLINATION":98.6122,"RA_OF_ASC_NODE":173.5144,"ARG_OF_PERICENTER":333.4801,"MEAN_ANOMALY":26.6213,"EPHEMERIS_TYPE":0,"CLASSIFICATION_TYPE":"U","NORAD_CAT_ID":57166,"ELEMENT_SET_NO":999,"REV_AT_EPOCH":14730,"BSTAR":2.2784e-5,"MEAN_MOTION_DOT":9.0e-8,"MEAN_MOTION_DDOT":0},{"OBJECT_NAME":"TIANMU-1 07","OBJECT_ID":"2023-101A","EPOCH":"2026-04-27T12:41:19.534848","MEAN_MOTION":15.29268967,"ECCENTRICITY":0.0001315,"INCLINATION":97.264,"RA_OF_ASC_NODE":169.3705,"ARG_OF_PERICENTER":9.3034,"MEAN_ANOMALY":350.8231,"EPHEMERIS_TYPE":0,"CLASSIFICATION_TYPE":"U","NORAD_CAT_ID":57399,"ELEMENT_SET_NO":999,"REV_AT_EPOCH":15390,"BSTAR":0.00023258,"MEAN_MOTION_DOT":6.531e-5,"MEAN_MOTION_DDOT":0},{"OBJECT_NAME":"TIANMU-1 08","OBJECT_ID":"2023-101B","EPOCH":"2026-04-27T08:46:03.293760","MEAN_MOTION":15.29300022,"ECCENTRICITY":0.0002192,"INCLINATION":97.2629,"RA_OF_ASC_NODE":168.9871,"ARG_OF_PERICENTER":313.7562,"MEAN_ANOMALY":46.3497,"EPHEMERIS_TYPE":0,"CLASSIFICATION_TYPE":"U","NORAD_CAT_ID":57400,"ELEMENT_SET_NO":999,"REV_AT_EPOCH":15387,"BSTAR":0.00034046,"MEAN_MOTION_DOT":9.606e-5,"MEAN_MOTION_DDOT":0},{"OBJECT_NAME":"TIANMU-1 09","OBJECT_ID":"2023-101C","EPOCH":"2026-04-27T11:31:02.558208","MEAN_MOTION":15.29306814,"ECCENTRICITY":0.0001818,"INCLINATION":97.2587,"RA_OF_ASC_NODE":168.5426,"ARG_OF_PERICENTER":1.1363,"MEAN_ANOMALY":358.9881,"EPHEMERIS_TYPE":0,"CLASSIFICATION_TYPE":"U","NORAD_CAT_ID":57401,"ELEMENT_SET_NO":999,"REV_AT_EPOCH":15389,"BSTAR":0.00027527,"MEAN_MOTION_DOT":7.753e-5,"MEAN_MOTION_DDOT":0}]
